start=new Date('2022-11-14T00:00:00.000Z').valueOf();
sats=[{"COUNTRY_CODE":"US","REF_FRAME":"TEME","FILE":"3653238","RCS_SIZE":"LARGE","OBJECT_TYPE":"PAYLOAD","MEAN_ANOMALY":"324.0229","EPOCH":"2022-11-13T00:06:12.394368","OBJECT_NAME":"STARLINK-3308","ARG_OF_PERICENTER":"36.0913","TLE_LINE1":"1 50846U 22001AV  22317.00431012  .00002202  00000-0  15641-3 0  9990","RA_OF_ASC_NODE":"223.0878","GP_ID":"217627636","REV_AT_EPOCH":"4719","ELEMENT_SET_NO":"999","CENTER_NAME":"EARTH","APOAPSIS":"541.269","ECCENTRICITY":"0.00022350","INCLINATION":"53.2174","SEMIMAJOR_AXIS":"6917.858","LAUNCH_DATE":"2022-01-06","EPHEMERIS_TYPE":"0","PERIOD":"95.437","MEAN_MOTION_DOT":"0.00002202","MEAN_MOTION_DDOT":"0.0000000000000","PERIAPSIS":"538.177","MEAN_ELEMENT_THEORY":"SGP4","TIME_SYSTEM":"UTC","NORAD_CAT_ID":"50846","TLE_LINE2":"2 50846  53.2174 223.0878 0002235  36.0913 324.0229 15.08847377 47194","BSTAR":"0.00015641000000","DECAY_DATE":null,"SITE":"AFETR","MEAN_MOTION":"15.08847377","OBJECT_ID":"2022-001AV","CLASSIFICATION_TYPE":"U"},{"DECAY_DATE":null,"TIME_SYSTEM":"UTC","NORAD_CAT_ID":"50847","MEAN_ELEMENT_THEORY":"SGP4","BSTAR":"-0.00025028000000","TLE_LINE2":"2 50847  53.2150 219.6803 0002574  67.5450 292.5815 15.08824259 47306","CLASSIFICATION_TYPE":"U","MEAN_MOTION":"15.08824259","SITE":"AFETR","OBJECT_ID":"2022-001AW","EPHEMERIS_TYPE":"0","INCLINATION":"53.2150","ECCENTRICITY":"0.00025740","SEMIMAJOR_AXIS":"6917.929","LAUNCH_DATE":"2022-01-06","MEAN_MOTION_DOT":"-0.00004268","PERIAPSIS":"538.013","MEAN_MOTION_DDOT":"0.0000000000000","PERIOD":"95.439","RA_OF_ASC_NODE":"219.6803","GP_ID":"217693218","TLE_LINE1":"1 50847U 22001AW  22317.75870853 -.00004268  00000-0 -25028-3 0  9999","REV_AT_EPOCH":"4730","ARG_OF_PERICENTER":"67.5450","APOAPSIS":"541.574","CENTER_NAME":"EARTH","ELEMENT_SET_NO":"999","COUNTRY_CODE":"US","FILE":"3653957","REF_FRAME":"TEME","OBJECT_NAME":"STARLINK-3319","EPOCH":"2022-11-13T18:12:32.416992","MEAN_ANOMALY":"292.5815","OBJECT_TYPE":"PAYLOAD","RCS_SIZE":"LARGE"},{"APOAPSIS":"541.145","CENTER_NAME":"EARTH","ELEMENT_SET_NO":"999","GP_ID":"217692968","RA_OF_ASC_NODE":"220.4283","TLE_LINE1":"1 50848U 22001AX  22317.59679993  .00006461  00000-0  42359-3 0  9995","REV_AT_EPOCH":"4728","ARG_OF_PERICENTER":"44.7355","OBJECT_NAME":"STARLINK-3315","EPOCH":"2022-11-13T14:19:23.513952","MEAN_ANOMALY":"315.3803","OBJECT_TYPE":"PAYLOAD","RCS_SIZE":"LARGE","COUNTRY_CODE":"US","FILE":"3653957","REF_FRAME":"TEME","CLASSIFICATION_TYPE":"U","MEAN_MOTION":"15.08847612","SITE":"AFETR","OBJECT_ID":"2022-001AX","DECAY_DATE":null,"TIME_SYSTEM":"UTC","NORAD_CAT_ID":"50848","MEAN_ELEMENT_THEORY":"SGP4","BSTAR":"0.00042359000000","TLE_LINE2":"2 50848  53.2131 220.4283 0002057  44.7355 315.3803 15.08847612 47281","MEAN_MOTION_DOT":"0.00006461","PERIAPSIS":"538.299","MEAN_MOTION_DDOT":"0.0000000000000","PERIOD":"95.437","EPHEMERIS_TYPE":"0","INCLINATION":"53.2131","ECCENTRICITY":"0.00020570","SEMIMAJOR_AXIS":"6917.857","LAUNCH_DATE":"2022-01-06"},{"SITE":"AFETR","MEAN_MOTION":"15.08857355","OBJECT_ID":"2022-001AY","CLASSIFICATION_TYPE":"U","MEAN_ELEMENT_THEORY":"SGP4","NORAD_CAT_ID":"50849","TIME_SYSTEM":"UTC","TLE_LINE2":"2 50849  53.2162 223.0565 0002327  34.6912 325.4231 15.08857355 47197","BSTAR":"0.00049649000000","DECAY_DATE":null,"PERIOD":"95.436","MEAN_MOTION_DOT":"0.00007626","MEAN_MOTION_DDOT":"0.0000000000000","PERIAPSIS":"538.083","ECCENTRICITY":"0.00023270","INCLINATION":"53.2162","SEMIMAJOR_AXIS":"6917.827","LAUNCH_DATE":"2022-01-06","EPHEMERIS_TYPE":"0","ELEMENT_SET_NO":"999","CENTER_NAME":"EARTH","APOAPSIS":"541.302","ARG_OF_PERICENTER":"34.6912","TLE_LINE1":"1 50849U 22001AY  22317.01167548  .00007626  00000-0  49649-3 0  9994","GP_ID":"217627397","RA_OF_ASC_NODE":"223.0565","REV_AT_EPOCH":"4719","RCS_SIZE":"LARGE","MEAN_ANOMALY":"325.4231","OBJECT_TYPE":"PAYLOAD","EPOCH":"2022-11-13T00:16:48.761472","OBJECT_NAME":"STARLINK-3311","COUNTRY_CODE":"US","REF_FRAME":"TEME","FILE":"3653238"},{"EPHEMERIS_TYPE":"0","LAUNCH_DATE":"2022-01-06","SEMIMAJOR_AXIS":"6918.042","INCLINATION":"53.2155","ECCENTRICITY":"0.00020180","MEAN_MOTION_DDOT":"0.0000000000000","PERIAPSIS":"538.511","MEAN_MOTION_DOT":"-0.00026918","PERIOD":"95.441","DECAY_DATE":null,"TLE_LINE2":"2 50850  53.2155 179.7570 0002018  40.6996 319.4147 15.08787038 48404","BSTAR":"-0.00168190000000","MEAN_ELEMENT_THEORY":"SGP4","NORAD_CAT_ID":"50850","TIME_SYSTEM":"UTC","CLASSIFICATION_TYPE":"U","OBJECT_ID":"2022-001AZ","SITE":"AFETR","MEAN_MOTION":"15.08787038","REF_FRAME":"TEME","FILE":"3653957","COUNTRY_CODE":"US","EPOCH":"2022-11-13T17:51:24.928128","OBJECT_NAME":"STARLINK-3312","RCS_SIZE":"LARGE","OBJECT_TYPE":"PAYLOAD","MEAN_ANOMALY":"319.4147","REV_AT_EPOCH":"4840","TLE_LINE1":"1 50850U 22001AZ  22317.74403852 -.00026918  00000-0 -16819-2 0  9996","GP_ID":"217693971","RA_OF_ASC_NODE":"179.7570","ARG_OF_PERICENTER":"40.6996","CENTER_NAME":"EARTH","APOAPSIS":"541.303","ELEMENT_SET_NO":"999"},{"LAUNCH_DATE":"2022-01-06","SEMIMAJOR_AXIS":"6917.892","INCLINATION":"53.2161","ECCENTRICITY":"0.00030550","EPHEMERIS_TYPE":"0","PERIOD":"95.438","MEAN_MOTION_DDOT":"0.0000000000000","PERIAPSIS":"537.644","MEAN_MOTION_DOT":"-0.00000824","TLE_LINE2":"2 50851  53.2161 219.8523 0003055  34.9742 325.1450 15.08836200 47308","BSTAR":"-0.00003365200000","MEAN_ELEMENT_THEORY":"SGP4","NORAD_CAT_ID":"50851","TIME_SYSTEM":"UTC","DECAY_DATE":null,"OBJECT_ID":"2022-001BA","SITE":"AFETR","MEAN_MOTION":"15.08836200","CLASSIFICATION_TYPE":"U","REF_FRAME":"TEME","FILE":"3653957","COUNTRY_CODE":"US","RCS_SIZE":"LARGE","OBJECT_TYPE":"PAYLOAD","MEAN_ANOMALY":"325.1450","EPOCH":"2022-11-13T17:24:52.236576","OBJECT_NAME":"STARLINK-3314","ARG_OF_PERICENTER":"34.9742","REV_AT_EPOCH":"4730","TLE_LINE1":"1 50851U 22001BA  22317.72560459 -.00000824  00000-0 -33652-4 0  9996","RA_OF_ASC_NODE":"219.8523","GP_ID":"217692719","ELEMENT_SET_NO":"999","CENTER_NAME":"EARTH","APOAPSIS":"541.870"},{"ELEMENT_SET_NO":"999","APOAPSIS":"541.403","CENTER_NAME":"EARTH","ARG_OF_PERICENTER":"29.0247","REV_AT_EPOCH":"4587","RA_OF_ASC_NODE":"330.9451","GP_ID":"217627164","TLE_LINE1":"1 51104U 22005A   22317.47996777 -.00003940  00000-0 -22950-3 0  9990","MEAN_ANOMALY":"331.0880","OBJECT_TYPE":"PAYLOAD","RCS_SIZE":"LARGE","OBJECT_NAME":"STARLINK-3366","EPOCH":"2022-11-13T11:31:09.215328","FILE":"3653238","REF_FRAME":"TEME","COUNTRY_CODE":"US","OBJECT_ID":"2022-005A","MEAN_MOTION":"15.08846617","SITE":"AFETR","CLASSIFICATION_TYPE":"U","BSTAR":"-0.00022950000000","TLE_LINE2":"2 51104  53.2187 330.9451 0002426  29.0247 331.0880 15.08846617 45875","NORAD_CAT_ID":"51104","TIME_SYSTEM":"UTC","MEAN_ELEMENT_THEORY":"SGP4","DECAY_DATE":null,"PERIOD":"95.437","PERIAPSIS":"538.047","MEAN_MOTION_DDOT":"0.0000000000000","MEAN_MOTION_DOT":"-0.00003940","SEMIMAJOR_AXIS":"6917.860","LAUNCH_DATE":"2022-01-19","ECCENTRICITY":"0.00024260","INCLINATION":"53.2187","EPHEMERIS_TYPE":"0"},{"CLASSIFICATION_TYPE":"U","MEAN_MOTION":"15.08840802","SITE":"AFETR","OBJECT_ID":"2022-005B","DECAY_DATE":null,"NORAD_CAT_ID":"51105","TIME_SYSTEM":"UTC","MEAN_ELEMENT_THEORY":"SGP4","BSTAR":"-0.00002712500000","TLE_LINE2":"2 51105  53.2161 330.7775 0002522  36.5646 323.5518 15.08840802 45883","MEAN_MOTION_DOT":"-0.00000720","PERIAPSIS":"537.998","MEAN_MOTION_DDOT":"0.0000000000000","PERIOD":"95.438","EPHEMERIS_TYPE":"0","ECCENTRICITY":"0.00025220","INCLINATION":"53.2161","LAUNCH_DATE":"2022-01-19","SEMIMAJOR_AXIS":"6917.878","APOAPSIS":"541.488","CENTER_NAME":"EARTH","ELEMENT_SET_NO":"999","GP_ID":"217693738","RA_OF_ASC_NODE":"330.7775","TLE_LINE1":"1 51105U 22005B   22317.52044363 -.00000720  00000-0 -27125-4 0  9995","REV_AT_EPOCH":"4588","ARG_OF_PERICENTER":"36.5646","OBJECT_NAME":"STARLINK-3350","EPOCH":"2022-11-13T12:29:26.329632","MEAN_ANOMALY":"323.5518","OBJECT_TYPE":"PAYLOAD","RCS_SIZE":"LARGE","COUNTRY_CODE":"US","FILE":"3653957","REF_FRAME":"TEME"},{"REV_AT_EPOCH":"4588","TLE_LINE1":"1 51106U 22005C   22317.56461683 -.00002147  00000-0 -11677-3 0  9997","RA_OF_ASC_NODE":"330.5507","GP_ID":"217693990","ARG_OF_PERICENTER":"22.8512","CENTER_NAME":"EARTH","APOAPSIS":"541.831","ELEMENT_SET_NO":"999","REF_FRAME":"TEME","FILE":"3653957","COUNTRY_CODE":"US","EPOCH":"2022-11-13T13:33:02.894112","OBJECT_NAME":"STARLINK-3176","RCS_SIZE":"LARGE","MEAN_ANOMALY":"337.2614","OBJECT_TYPE":"PAYLOAD","DECAY_DATE":null,"TLE_LINE2":"2 51106  53.2178 330.5507 0003022  22.8512 337.2614 15.08841764 45886","BSTAR":"-0.00011677000000","MEAN_ELEMENT_THEORY":"SGP4","NORAD_CAT_ID":"51106","TIME_SYSTEM":"UTC","CLASSIFICATION_TYPE":"U","OBJECT_ID":"2022-005C","SITE":"AFETR","MEAN_MOTION":"15.08841764","EPHEMERIS_TYPE":"0","LAUNCH_DATE":"2022-01-19","SEMIMAJOR_AXIS":"6917.875","INCLINATION":"53.2178","ECCENTRICITY":"0.00030220","MEAN_MOTION_DDOT":"0.0000000000000","PERIAPSIS":"537.649","MEAN_MOTION_DOT":"-0.00002147","PERIOD":"95.437"},{"MEAN_ELEMENT_THEORY":"SGP4","NORAD_CAT_ID":"51107","TIME_SYSTEM":"UTC","TLE_LINE2":"2 51107  53.2155 341.7647 0002697  22.4020 337.7089 15.08846953 45716","BSTAR":"0.00001243100000","DECAY_DATE":null,"SITE":"AFETR","MEAN_MOTION":"15.08846953","OBJECT_ID":"2022-005D","CLASSIFICATION_TYPE":"U","ECCENTRICITY":"0.00026970","INCLINATION":"53.2155","LAUNCH_DATE":"2022-01-19","SEMIMAJOR_AXIS":"6917.859","EPHEMERIS_TYPE":"0","PERIOD":"95.437","MEAN_MOTION_DOT":"-0.00000091","MEAN_MOTION_DDOT":"0.0000000000000","PERIAPSIS":"537.858","ARG_OF_PERICENTER":"22.4020","TLE_LINE1":"1 51107U 22005D   22317.29967955 -.00000091  00000-0  12431-4 0  9996","RA_OF_ASC_NODE":"341.7647","GP_ID":"217626914","REV_AT_EPOCH":"4571","ELEMENT_SET_NO":"999","CENTER_NAME":"EARTH","APOAPSIS":"541.590","COUNTRY_CODE":"US","REF_FRAME":"TEME","FILE":"3653238","RCS_SIZE":"LARGE","MEAN_ANOMALY":"337.7089","OBJECT_TYPE":"PAYLOAD","EPOCH":"2022-11-13T07:11:32.313120","OBJECT_NAME":"STARLINK-3368"}];
